[{"OBJECT_NAME":"STARLINK-34859","OBJECT_ID":"2025-189AB","EPOCH":"2026-03-09T16:25:26.982048","MEAN_MOTION":15.30202852,"ECCENTRICITY":9.208e-5,"INCLINATION":53.1585,"RA_OF_ASC_NODE":206.9335,"ARG_OF_PERICENTER":89.5242,"MEAN_ANOMALY":270.5864,"EPHEMERIS_TYPE":0,"CLASSIFICATION_TYPE":"U","NORAD_CAT_ID":65348,"ELEMENT_SET_NO":999,"REV_AT_EPOCH":3110,"BSTAR":0.00081203436,"MEAN_MOTION_DOT":0.0002377,"MEAN_MOTION_DDOT":0},{"OBJECT_NAME":"THORAD AGENA D DEB","OBJECT_ID":"1969-082CP","EPOCH":"2026-03-09T22:51:31.947840","MEAN_MOTION":15.31252047,"ECCENTRICITY":0.00108961,"INCLINATION":69.8927,"RA_OF_ASC_NODE":265.8646,"ARG_OF_PERICENTER":335.0972,"MEAN_ANOMALY":24.9676,"EPHEMERIS_TYPE":0,"CLASSIFICATION_TYPE":"U","NORAD_CAT_ID":4133,"ELEMENT_SET_NO":999,"REV_AT_EPOCH":97550,"BSTAR":0.0018489552,"MEAN_MOTION_DOT":0.00056347,"MEAN_MOTION_DDOT":0}]
